GOES 1 (SMS-C) [-]      
1 08366U 75100A   21341.60674385 -.00000076  00000+0  00000+0 0  9998
2 08366   8.7381 298.1902 0002665 306.0399 302.3576  1.00316851168491
GOES 2 [-]              
1 10061U 77048A   21342.31524611 -.00000238  00000+0  00000+0 0  9991
2 10061  10.2784 309.1587 0013234  12.7366 173.9393  0.99398019107093
GOES 3 [-]              
1 10953U 78062A   21341.64684003 -.00000035  00000+0  00000+0 0  9990
2 10953  10.5867 313.5082 0000724  98.8777  89.9424  0.99363216112119
GOES 4 [-]              
1 11964U 80074A   21341.67841308 -.00000211  00000+0  00000+0 0  9991
2 11964  11.5261 317.3098 0032470  64.7808 290.1525  0.99233504111236
GOES 5 [-]              
1 12472U 81049A   21341.58811453  .00000027  00000+0  00000+0 0  9991
2 12472  12.2814 328.4681 0000893 294.7011 256.7945  1.00324364106279
GOES 6 [-]              
1 14050U 83041A   21341.58500225 -.00000039  00000+0  00000+0 0  9995
2 14050  12.7973 333.7024 0002123 138.7492  57.1812  1.00322081199443
GOES 7 [-]              
1 17561U 87022A   21341.85267531 -.00000317  00000+0  00000+0 0  9997
2 17561  14.4002 350.1538 0005072  37.5074 140.8524  0.99908472110473
GOES 8 [-]              
1 23051U 94022A   21341.72524933  .00000022  00000+0  00000+0 0  9996
2 23051  13.0131  25.5653 0004711 355.3804 182.8244  0.98903983107780
GOES 9 [-]              
1 23581U 95025A   21341.73820571 -.00000071  00000+0  00000+0 0  9991
2 23581  12.5034  25.7933 0004100 101.9866  58.7578  0.98800607 96431
GOES 10 [-]             
1 24786U 97019A   21341.82633538 -.00000116  00000+0  00000+0 0  9999
2 24786  11.2050  31.8354 0026501 198.7131 156.4118  0.99125199 89688
GOES 11 [-]             
1 26352U 00022A   21341.39193110 -.00000164  00000+0  00000+0 0  9990
2 26352   8.2791  60.8289 0002399 205.7539 247.6705  0.99042250 36106
GOES 12 [-]             
1 26871U 01031A   21341.54129355 -.00000306  00000+0  00000+0 0  9992
2 26871   9.1759  49.4183 0006024 293.4409  72.3823  0.99140365 74383
EWS-G1 (GOES 13) [+]    
1 29155U 06018A   21341.76423591  .00000038  00000+0  00000+0 0  9994
2 29155   0.2994 102.9974 0006739 131.8824 178.4113  1.00272101 26807
GOES 14 [B]             
1 35491U 09033A   21341.65939948 -.00000092  00000+0  00000+0 0  9991
2 35491   0.1755 287.6498 0015429 294.6935 347.3698  1.00270337 45580
GOES 15 [B]             
1 36411U 10008A   21341.77757697  .00000054  00000+0  00000+0 0  9997
2 36411   0.2017 276.2717 0001053  23.0268 289.3901  1.00279628 43104
GOES 16 [+]             
1 41866U 16071A   21342.52648890 -.00000249  00000+0  00000+0 0  9998
2 41866   0.0537 255.5701 0000622  37.6765 258.6106  1.00270027 18546
GOES 17 [+]             
1 43226U 18022A   21341.77757697  .00000099  00000+0  00000+0 0  9992
2 43226   0.0425 240.7493 0000328 332.3902   6.3509  1.00270089 13851
